0 FENGYUN 1C DEB
1 30123U 99025SC  13281.68811994  .00001063  00000-0  46690-3 0  4000
2 30123 096.9228 079.1259 0284619 037.6667 324.4066 14.05477863344624
0 FENGYUN 1C DEB
1 30123U 99025SC  13285.67472459  .00001242  00000-0  54409-3 0  4020
2 30123 096.9230 082.1799 0284196 025.8833 335.6247 14.05490319345171
0 FENGYUN 1C DEB
1 30123U 99025SC  13287.38325642  .00001422  00000-0  62148-3 0  4031
2 30123 096.9230 083.4889 0284068 020.8130 340.4340 14.05494471345416
0 FENGYUN 1C DEB
1 30123U 99025SC  13288.66464935  .00001755  00000-0  76409-3 0  4047
2 30123 096.9234 084.4708 0283985 017.0179 344.0283 14.05500593345597
0 FENGYUN 1C DEB
1 30123U 99025SC  13290.37316659  .00001633  00000-0  71221-3 0  4050
2 30123 096.9237 085.7798 0283895 011.9683 348.8053 14.05507189345838
0 FENGYUN 1C DEB
1 30123U 99025SC  13291.93929935  .00001612  00000-0  70338-3 0  4066
2 30123 096.9238 086.9797 0283805 007.3457 353.1742 14.05511122346051
0 FENGYUN 1C DEB
1 30123U 99025SC  13293.64780131  .00001740  00000-0  75814-3 0  4076
2 30123 096.9238 088.2889 0283738 002.2997 357.9408 14.05517038346295
0 FENGYUN 1C DEB
1 30123U 99025SC  13295.42748428  .00001770  00000-0  77129-3 0  4082
2 30123 096.9239 089.6532 0283603 357.0701 002.8799 14.05523833346548
